$$SOE
2460728.500000000, A.D. 2025-Feb-22 00:00:00.0000, 4.368556092111645E+08, 2.196165072099168E+07, -4.047279358425406E+07,
2460735.500000000, A.D. 2025-Mar-01 00:00:00.0000, 4.374785758965660E+08, 3.175711792044535E+07, -4.164413714531395E+07,
2460742.500000000, A.D. 2025-Mar-08 00:00:00.0000, 4.378532402997772E+08, 4.153454269023557E+07, -4.279184417492907E+07,
2460749.500000000, A.D. 2025-Mar-15 00:00:00.0000, 4.379815684274397E+08, 5.128858423922075E+07, -4.391547602784984E+07,
2460756.500000000, A.D. 2025-Mar-22 00:00:00.0000, 4.378655856563743E+08, 6.101400468987665E+07, -4.501461056454372E+07,
2460763.500000000, A.D. 2025-Mar-29 00:00:00.0000, 4.375073726975732E+08, 7.070566464489776E+07, -4.608884164365296E+07,
2460770.500000000, A.D. 2025-Apr-05 00:00:00.0000, 4.369090634788464E+08, 8.035851964564532E+07, -4.713777871744023E+07,
2460777.500000000, A.D. 2025-Apr-12 00:00:00.0000, 4.360728430097116E+08, 8.996761763380811E+07, -4.816104634509938E+07,
2460784.500000000, A.D. 2025-Apr-19 00:00:00.0000, 4.350009450321907E+08, 9.952809654125738E+07, -4.915828367890881E+07,
2460791.500000000, A.D. 2025-Apr-26 00:00:00.0000, 4.336956497202857E+08, 1.090351818105621E+08, -5.012914396481480E+07,
2460798.500000000, A.D. 2025-May-03 00:00:00.0000, 4.321592815331557E+08, 1.184841838702829E+08, -5.107329406629772E+07,
2460805.500000000, A.D. 2025-May-10 00:00:00.0000, 4.303942072423178E+08, 1.278704955781797E+08, -5.199041401336303E+07,
2460812.500000000, A.D. 2025-May-17 00:00:00.0000, 4.284028341619087E+08, 1.371895895953058E+08, -5.288019658328427E+07,
2460819.500000000, A.D. 2025-May-24 00:00:00.0000, 4.261876087489218E+08, 1.464370156398012E+08, -5.374234693344384E+07,
2460826.500000000, A.D. 2025-May-31 00:00:00.0000, 4.237510159841574E+08, 1.556083979332223E+08, -5.457658229910432E+07,
2460833.500000000, A.D. 2025-Jun-07 00:00:00.0000, 4.210955791243284E+08, 1.646994340448984E+08, -5.538263162053262E+07,
2460840.500000000, A.D. 2025-Jun-14 00:00:00.0000, 4.182238574508221E+08, 1.737058944678749E+08, -5.616023493654922E+07,
2460847.500000000, A.D. 2025-Jun-21 00:00:00.0000, 4.151384432117956E+08, 1.826236196654725E+08, -5.690914291809149E+07,
2460854.500000000, A.D. 2025-Jun-28 00:00:00.0000, 4.118419609047794E+08, 1.914485164135335E+08, -5.762911667913243E+07,
2460861.500000000, A.D. 2025-Jul-05 00:00:00.0000, 4.083370674524772E+08, 2.001765554965039E+08, -5.831992758680440E+07,
2460868.500000000, A.D. 2025-Jul-12 00:00:00.0000, 4.046264519237778E+08, 2.088037699094252E+08, -5.898135699736758E+07,
2460875.500000000, A.D. 2025-Jul-19 00:00:00.0000, 4.007128350337718E+08, 2.173262531410167E+08, -5.961319596619888E+07,
2460882.500000000, A.D. 2025-Jul-26 00:00:00.0000, 3.965989686779209E+08, 2.257401574260175E+08, -6.021524497814608E+07,
2460889.500000000, A.D. 2025-Aug-02 00:00:00.0000, 3.922876355374764E+08, 2.340416919695475E+08, -6.078731369953665E+07,
2460896.500000000, A.D. 2025-Aug-09 00:00:00.0000, 3.877816487695663E+08, 2.422271211336162E+08, -6.132922075233260E+07,
2460903.500000000, A.D. 2025-Aug-16 00:00:00.0000, 3.830838518536090E+08, 2.502927625255597E+08, -6.184079352149829E+07,
2460910.500000000, A.D. 2025-Aug-23 00:00:00.0000, 3.781971188828071E+08, 2.582349850077354E+08, -6.232186802052035E+07,
2460917.500000000, A.D. 2025-Aug-30 00:00:00.0000, 3.731243556271753E+08, 2.660502073445922E+08, -6.277228878673085E+07,
2460924.500000000, A.D. 2025-Sep-06 00:00:00.0000, 3.678684999468280E+08, 2.737348984883571E+08, -6.319190859419370E+07,
2460931.500000000, A.D. 2025-Sep-13 00:00:00.0000, 3.624325198825039E+08, 2.812855770232434E+08, -6.358058803355786E+07,
2460938.500000000, A.D. 2025-Sep-20 00:00:00.0000, 3.568194126976366E+08, 2.886988081258292E+08, -6.393819539403196E+07,
2460945.500000000, A.D. 2025-Sep-27 00:00:00.0000, 3.510322059293433E+08, 2.959712011519523E+08, -6.426460669020579E+07,
2460952.500000000, A.D. 2025-Oct-04 00:00:00.0000, 3.450739584282125E+08, 3.030994083887725E+08, -6.455970560404832E+07,
2460959.500000000, A.D. 2025-Oct-11 00:00:00.0000, 3.389477610105726E+08, 3.100801240296825E+08, -6.482338338449533E+07,
2460966.500000000, A.D. 2025-Oct-18 00:00:00.0000, 3.326567370049253E+08, 3.169100830985001E+08, -6.505553875289318E+07,
2460973.500000000, A.D. 2025-Oct-25 00:00:00.0000, 3.262040428302682E+08, 3.235860603347377E+08, -6.525607782608248E+07,
2460980.500000000, A.D. 2025-Nov-01 00:00:00.0000, 3.195928686439323E+08, 3.301048690561976E+08, -6.542491405936854E+07,
2460987.500000000, A.D. 2025-Nov-08 00:00:00.0000, 3.128264390915776E+08, 3.364633599683640E+08, -6.556196821500768E+07,
2460994.500000000, A.D. 2025-Nov-15 00:00:00.0000, 3.059080143052934E+08, 3.426584198633096E+08, -6.566716837451853E+07,
2461001.500000000, A.D. 2025-Nov-22 00:00:00.0000, 2.988408915509992E+08, 3.486869704299662E+08, -6.574045001394144E+07,
2461008.500000000, A.D. 2025-Nov-29 00:00:00.0000, 2.916284073707247E+08, 3.545459683118499E+08, -6.578175603548336E+07,
2461015.500000000, A.D. 2025-Dec-06 00:00:00.0000, 2.842739379393703E+08, 3.602324062766836E+08, -6.579103655748479E+07,
2461022.500000000, A.D. 2025-Dec-13 00:00:00.0000, 2.767808980671026E+08, 3.657433121316208E+08, -6.576824877809259E+07,
2461029.500000000, A.D. 2025-Dec-20 00:00:00.0000, 2.691527423420605E+08, 3.710757464118860E+08, -6.571335715067485E+07,
2461036.500000000, A.D. 2025-Dec-27 00:00:00.0000, 2.613929673401445E+08, 3.762268014355786E+08, -6.562633356126441E+07,
2461043.500000000, A.D. 2026-Jan-03 00:00:00.0000, 2.535051134416595E+08, 3.811936011108412E+08, -6.550715742452323E+07,
2461050.500000000, A.D. 2026-Jan-10 00:00:00.0000, 2.454927663639176E+08, 3.859733008192939E+08, -6.535581576390390E+07,
2461057.500000000, A.D. 2026-Jan-17 00:00:00.0000, 2.373595586419212E+08, 3.905630872872372E+08, -6.517230330497019E+07,
2461064.500000000, A.D. 2026-Jan-24 00:00:00.0000, 2.291091711345313E+08, 3.949601784705040E+08, -6.495662258726965E+07,
2461071.500000000, A.D. 2026-Jan-31 00:00:00.0000, 2.207453345788675E+08, 3.991618234489806E+08, -6.470878409759118E+07,
2461078.500000000, A.D. 2026-Feb-07 00:00:00.0000, 2.122718312536163E+08, 4.031653022772250E+08, -6.442880643502738E+07,
2461085.500000000, A.D. 2026-Feb-14 00:00:00.0000, 2.036924970034500E+08, 4.069679257802119E+08, -6.411671653250064E+07,
2461092.500000000, A.D. 2026-Feb-21 00:00:00.0000, 1.950112240117551E+08, 4.105670358761533E+08, -6.377254992360216E+07,
2461099.500000000, A.D. 2026-Feb-28 00:00:00.0000, 1.862319632369905E+08, 4.139600075836359E+08, -6.339635086139730E+07,
2461106.500000000, A.D. 2026-Mar-07 00:00:00.0000, 1.773587244521175E+08, 4.171442507652160E+08, -6.298817225937323E+07,
2461113.500000000, A.D. 2026-Mar-14 00:00:00.0000, 1.683955766602034E+08, 4.201172092807877E+08, -6.254807590001261E+07,
2461120.500000000, A.D. 2026-Mar-21 00:00:00.0000, 1.593466506700518E+08, 4.228763604558436E+08, -6.207613283899692E+07,
2461127.500000000, A.D. 2026-Mar-28 00:00:00.0000, 1.502161418229525E+08, 4.254192158970351E+08, -6.157242373714748E+07,
2461134.500000000, A.D. 2026-Apr-04 00:00:00.0000, 1.410083122658165E+08, 4.277433226927800E+08, -6.103703914363140E+07,
2461141.500000000, A.D. 2026-Apr-11 00:00:00.0000, 1.317274930432785E+08, 4.298462646426155E+08, -6.047007978486328E+07,
2461148.500000000, A.D. 2026-Apr-18 00:00:00.0000, 1.223780861659424E+08, 4.317256635121978E+08, -5.987165687395850E+07,
2461155.500000000, A.D. 2026-Apr-25 00:00:00.0000, 1.129645666973951E+08, 4.333791803331014E+08, -5.924189244343795E+07,
2461162.500000000, A.D. 2026-May-02 00:00:00.0000, 1.034914848869583E+08, 4.348045167241038E+08, -5.858091970649078E+07,
2461169.500000000, A.D. 2026-May-09 00:00:00.0000, 9.396346846950051E+07, 4.359994161759591E+08, -5.788888346426162E+07,
2461176.500000000, A.D. 2026-May-16 00:00:00.0000, 8.438522550785322E+07, 4.369616654474342E+08, -5.716594058359052E+07,
2461183.500000000, A.D. 2026-May-23 00:00:00.0000, 7.476154782823198E+07, 4.376890971048097E+08, -5.641226046776009E+07,
2461190.500000000, A.D. 2026-May-30 00:00:00.0000, 6.509731296948785E+07, 4.381795935320476E+08, -5.562802530447961E+07,
2461197.500000000, A.D. 2026-Jun-06 00:00:00.0000, 5.539748432507318E+07, 4.384310891426619E+08, -5.481343032928327E+07,
2461204.500000000, A.D. 2026-Jun-13 00:00:00.0000, 4.566711313721487E+07, 4.384415710011438E+08, -5.396868442481054E+07,
2461211.500000000, A.D. 2026-Jun-20 00:00:00.0000, 3.591134183827955E+07, 4.382090807908658E+08, -5.309401077233514E+07,
2461218.500000000, A.D. 2026-Jun-27 00:00:00.0000, 2.613540703626109E+07, 4.377317177965214E+08, -5.218964742818587E+07,
2461225.500000000, A.D. 2026-Jul-04 00:00:00.0000, 1.634464213753766E+07, 4.370076421344565E+08, -5.125584788881724E+07,
2461232.500000000, A.D. 2026-Jul-11 00:00:00.0000, 6.544479853319225E+06, 4.360350781084601E+08, -5.029288167923701E+07,
2461239.500000000, A.D. 2026-Jul-18 00:00:00.0000, -3.259545325577018E+06, 4.348123177268296E+08, -4.930103497188668E+07,
2461246.500000000, A.D. 2026-Jul-25 00:00:00.0000, -1.306179467001846E+07, 4.333377243938300E+08, -4.828061123863149E+07,
2461253.500000000, A.D. 2026-Aug-01 00:00:00.0000, -2.285652273159368E+07, 4.316097367380538E+08, -4.723193194473812E+07,
2461260.500000000, A.D. 2026-Aug-08 00:00:00.0000, -3.263787463544658E+07, 4.296268725526788E+08, -4.615533730789122E+07,
2461267.500000000, A.D. 2026-Aug-15 00:00:00.0000, -4.239988274425392E+07, 4.273877333095974E+08, -4.505118712389503E+07,
2461274.500000000, A.D. 2026-Aug-22 00:00:00.0000, -5.213646346760312E+07, 4.248910104817334E+08, -4.391986149007590E+07,
2461281.500000000, A.D. 2026-Aug-29 00:00:00.0000, -6.184141651838080E+07, 4.221354923124789E+08, -4.276176132885426E+07,
2461288.500000000, A.D. 2026-Sep-05 00:00:00.0000, -7.150842449821658E+07, 4.191200681719614E+08, -4.157730914050125E+07,
2461295.500000000, A.D. 2026-Sep-12 00:00:00.0000, -8.113105037723632E+07, 4.158437330080799E+08, -4.036695000607602E+07,
$$EOE